{"type": "FeatureCollection", "features": [ {"type": "Feature", "properties": {"norad_id": 33799, "name": "COSMOS 2251 DEB", "group": "cosmos-2251-debris", "lat": 45.95977864330679, "lon": -111.43196555491403, "alt_km": 611.5423681083539, "timestamp": "2025-12-10T16:57:12.031520+00:00", "meta": {"OBJECT_NAME": "COSMOS 2251 DEB", "OBJECT_ID": "1993-036AQ", "EPOCH": "2025-12-10T10:13:24.684960", "MEAN_MOTION": 14.79522867, "ECCENTRICITY": 0.0023619, "INCLINATION": 74.032, "RA_OF_ASC_NODE": 86.3428, "ARG_OF_PERICENTER": 157.8211, "MEAN_ANOMALY": 280.9118, "EPHEMERIS_TYPE": 0, "CLASSIFICATION_TYPE": "U", "NORAD_CAT_ID": 33799, "ELEMENT_SET_NO": 999, "REV_AT_EPOCH": 88777, "BSTAR": 0.0017798, "MEAN_MOTION_DOT": 0.00013369, "MEAN_MOTION_DDOT": 0}, "tle": {"line1": "1 33799U 93036AQ  25344.42598015  .00013369  00000+0  17798-2 0  9999", "line2": "2 33799  74.0320  86.3428 0023619 157.8211 280.9118 14.79522867887773"}}, "geometry": {"type": "Point", "coordinates": [-111.43196555491403, 45.95977864330679]}}, {"type": "Feature", "properties": {"norad_id": 33805, "name": "COSMOS 2251 DEB", "group": "cosmos-2251-debris", "lat": 60.00031936454684, "lon": -15.065355293738588, "alt_km": 686.6346810632876, "timestamp": "2025-12-10T16:57:12.031530+00:00", "meta": {"OBJECT_NAME": "COSMOS 2251 DEB", "OBJECT_ID": "1993-036AW", "EPOCH": "2025-12-10T08:25:25.116096", "MEAN_MOTION": 14.57847209, "ECCENTRICITY": 0.0060294, "INCLINATION": 74.0305, "RA_OF_ASC_NODE": 315.8752, "ARG_OF_PERICENTER": 145.5394, "MEAN_ANOMALY": 214.9704, "EPHEMERIS_TYPE": 0, "CLASSIFICATION_TYPE": "U", "NORAD_CAT_ID": 33805, "ELEMENT_SET_NO": 999, "REV_AT_EPOCH": 89192, "BSTAR": 0.00038491, "MEAN_MOTION_DOT": 1.777e-05, "MEAN_MOTION_DDOT": 0}, "tle": {"line1": "1 33805U 93036AW  25344.35098514  .00001777  00000+0  38491-3 0  9992", "line2": "2 33805  74.0305 315.8752 0060294 145.5394 214.9704 14.57847209891926"}}, "geometry": {"type": "Point", "coordinates": [-15.065355293738588, 60.00031936454684]}}, {"type": "Feature", "properties": {"norad_id": 33811, "name": "COSMOS 2251 DEB", "group": "cosmos-2251-debris", "lat": -50.77373156455752, "lon": -73.93555165721104, "alt_km": 554.3257397885009, "timestamp": "2025-12-10T16:57:12.031545+00:00", "meta": {"OBJECT_NAME": "COSMOS 2251 DEB", "OBJECT_ID": "1993-036BC", "EPOCH": "2025-12-10T08:17:22.877952", "MEAN_MOTION": 15.0514338, "ECCENTRICITY": 0.0030709, "INCLINATION": 73.8381, "RA_OF_ASC_NODE": 307.6213, "ARG_OF_PERICENTER": 28.5111, "MEAN_ANOMALY": 122.9569, "EPHEMERIS_TYPE": 0, "CLASSIFICATION_TYPE": "U", "NORAD_CAT_ID": 33811, "ELEMENT_SET_NO": 999, "REV_AT_EPOCH": 89982, "BSTAR": 0.0018555, "MEAN_MOTION_DOT": 0.00026775, "MEAN_MOTION_DDOT": 0}, "tle": {"line1": "1 33811U 93036BC  25344.34540368  .00026775  00000+0  18555-2 0  9990", "line2": "2 33811  73.8381 307.6213 0030709  28.5111 122.9569 15.05143380899827"}}, "geometry": {"type": "Point", "coordinates": [-73.93555165721104, -50.77373156455752]}}, {"type": "Feature", "properties": {"norad_id": 33815, "name": "COSMOS 2251 DEB", "group": "cosmos-2251-debris", "lat": -68.85907161779744, "lon": 132.74653916191596, "alt_km": 520.1858511751598, "timestamp": "2025-12-10T16:57:12.031555+00:00", "meta": {"OBJECT_NAME": "COSMOS 2251 DEB", "OBJECT_ID": "1993-036BG", "EPOCH": "2025-12-10T00:34:36.803712", "MEAN_MOTION": 15.1696459, "ECCENTRICITY": 0.00027751, "INCLINATION": 73.9523, "RA_OF_ASC_NODE": 182.2836, "ARG_OF_PERICENTER": 231.9732, "MEAN_ANOMALY": 286.9539, "EPHEMERIS_TYPE": 0, "CLASSIFICATION_TYPE": "U", "NORAD_CAT_ID": 33815, "ELEMENT_SET_NO": 999, "REV_AT_EPOCH": 88329, "BSTAR": 0.0073023687, "MEAN_MOTION_DOT": 0.00147157, "MEAN_MOTION_DDOT": 0}, "tle": {"line1": "1 33815U 93036BG  25344.02403708  .00147157  00000+0  73024-2 0  9995", "line2": "2 33815  73.9523 182.2836 0002775 231.9732 286.9539 15.16964590883297"}}, "geometry": {"type": "Point", "coordinates": [132.74653916191596, -68.85907161779744]}}, {"type": "Feature", "properties": {"norad_id": 33816, "name": "COSMOS 2251 DEB", "group": "cosmos-2251-debris", "lat": 53.04935168979168, "lon": 131.4292346880561, "alt_km": 868.4295980329653, "timestamp": "2025-12-10T16:57:12.031565+00:00", "meta": {"OBJECT_NAME": "COSMOS 2251 DEB", "OBJECT_ID": "1993-036BH", "EPOCH": "2025-12-10T11:28:06.645216", "MEAN_MOTION": 13.8177874, "ECCENTRICITY": 0.0264811, "INCLINATION": 73.8947, "RA_OF_ASC_NODE": 109.2293, "ARG_OF_PERICENTER": 122.6023, "MEAN_ANOMALY": 240.0964, "EPHEMERIS_TYPE": 0, "CLASSIFICATION_TYPE": "U", "NORAD_CAT_ID": 33816, "ELEMENT_SET_NO": 999, "REV_AT_EPOCH": 84642, "BSTAR": 0.00078367, "MEAN_MOTION_DOT": 1.074e-05, "MEAN_MOTION_DDOT": 0}, "tle": {"line1": "1 33816U 93036BH  25344.47785469  .00001074  00000+0  78367-3 0  9995", "line2": "2 33816  73.8947 109.2293 0264811 122.6023 240.0964 13.81778740846420"}}, "geometry": {"type": "Point", "coordinates": [131.4292346880561, 53.04935168979168]}}, {"type": "Feature", "properties": {"norad_id": 33818, "name": "COSMOS 2251 DEB", "group": "cosmos-2251-debris", "lat": -29.683501905034475, "lon": -0.19027423331206145, "alt_km": 522.9508084853524, "timestamp": "2025-12-10T16:57:12.031576+00:00", "meta": {"OBJECT_NAME": "COSMOS 2251 DEB", "OBJECT_ID": "1993-036BK", "EPOCH": "2025-12-10T11:21:59.400288", "MEAN_MOTION": 15.12199668, "ECCENTRICITY": 0.0027679, "INCLINATION": 74.0757, "RA_OF_ASC_NODE": 170.9242, "ARG_OF_PERICENTER": 160.5319, "MEAN_ANOMALY": 223.3851, "EPHEMERIS_TYPE": 0, "CLASSIFICATION_TYPE": "U", "NORAD_CAT_ID": 33818, "ELEMENT_SET_NO": 999, "REV_AT_EPOCH": 89828, "BSTAR": 0.003346, "MEAN_MOTION_DOT": 0.00058751, "MEAN_MOTION_DDOT": 0}, "tle": {"line1": "1 33818U 93036BK  25344.47360417  .00058751  00000+0  33460-2 0  9997", "line2": "2 33818  74.0757 170.9242 0027679 160.5319 223.3851 15.12199668898283"}}, "geometry": {"type": "Point", "coordinates": [-0.19027423331206145, -29.683501905034475]}}, {"type": "Feature", "properties": {"norad_id": 33819, "name": "COSMOS 2251 DEB", "group": "cosmos-2251-debris", "lat": -21.01172251501816, "lon": 39.776329764051596, "alt_km": 826.6276249161001, "timestamp": "2025-12-10T16:57:12.031586+00:00", "meta": {"OBJECT_NAME": "COSMOS 2251 DEB", "OBJECT_ID": "1993-036BL", "EPOCH": "2025-12-10T10:08:02.203872", "MEAN_MOTION": 14.32209584, "ECCENTRICITY": 0.0088999, "INCLINATION": 74.1789, "RA_OF_ASC_NODE": 214.0375, "ARG_OF_PERICENTER": 76.0635, "MEAN_ANOMALY": 100.4545, "EPHEMERIS_TYPE": 0, "CLASSIFICATION_TYPE": "U", "NORAD_CAT_ID": 33819, "ELEMENT_SET_NO": 999, "REV_AT_EPOCH": 87462, "BSTAR": 0.0009007, "MEAN_MOTION_DOT": 2.512e-05, "MEAN_MOTION_DDOT": 0}, "tle": {"line1": "1 33819U 93036BL  25344.42224773  .00002512  00000+0  90070-3 0  9992", "line2": "2 33819  74.1789 214.0375 0088999  76.0635 100.4545 14.32209584874628"}}, "geometry": {"type": "Point", "coordinates": [39.776329764051596, -21.01172251501816]}}, {"type": "Feature", "properties": {"norad_id": 33821, "name": "COSMOS 2251 DEB", "group": "cosmos-2251-debris", "lat": -71.74213806424108, "lon": 86.90128816400558, "alt_km": 502.04500583128174, "timestamp": "2025-12-10T16:57:12.031596+00:00", "meta": {"OBJECT_NAME": "COSMOS 2251 DEB", "OBJECT_ID": "1993-036BN", "EPOCH": "2025-12-10T12:35:15.751104", "MEAN_MOTION": 15.25092149, "ECCENTRICITY": 0.0052463, "INCLINATION": 74.0302, "RA_OF_ASC_NODE": 147.5196, "ARG_OF_PERICENTER": 181.688, "MEAN_ANOMALY": 178.4153, "EPHEMERIS_TYPE": 0, "CLASSIFICATION_TYPE": "U", "NORAD_CAT_ID": 33821, "ELEMENT_SET_NO": 999, "REV_AT_EPOCH": 74967, "BSTAR": 0.0017654, "MEAN_MOTION_DOT": 0.00046203, "MEAN_MOTION_DDOT": 0}, "tle": {"line1": "1 33821U 93036BN  25344.52448786  .00046203  00000+0  17654-2 0  9999", "line2": "2 33821  74.0302 147.5196 0052463 181.6880 178.4153 15.25092149749670"}}, "geometry": {"type": "Point", "coordinates": [86.90128816400558, -71.74213806424108]}}, {"type": "Feature", "properties": {"norad_id": 33822, "name": "COSMOS 2251 DEB", "group": "cosmos-2251-debris", "lat": 13.376756738925433, "lon": 13.377186251592871, "alt_km": 825.1465047511874, "timestamp": "2025-12-10T16:57:12.031606+00:00", "meta": {"OBJECT_NAME": "COSMOS 2251 DEB", "OBJECT_ID": "1993-036BP", "EPOCH": "2025-12-10T08:30:14.657184", "MEAN_MOTION": 14.13051479, "ECCENTRICITY": 0.0153517, "INCLINATION": 74.0694, "RA_OF_ASC_NODE": 197.893, "ARG_OF_PERICENTER": 244.7874, "MEAN_ANOMALY": 292.7166, "EPHEMERIS_TYPE": 0, "CLASSIFICATION_TYPE": "U", "NORAD_CAT_ID": 33822, "ELEMENT_SET_NO": 999, "REV_AT_EPOCH": 86020, "BSTAR": 0.0017246, "MEAN_MOTION_DOT": 3.577e-05, "MEAN_MOTION_DDOT": 0}, "tle": {"line1": "1 33822U 93036BP  25344.35433631  .00003577  00000+0  17246-2 0  9998", "line2": "2 33822  74.0694 197.8930 0153517 244.7874 292.7166 14.13051479860209"}}, "geometry": {"type": "Point", "coordinates": [13.377186251592871, 13.376756738925433]}}, {"type": "Feature", "properties": {"norad_id": 33823, "name": "COSMOS 2251 DEB", "group": "cosmos-2251-debris", "lat": 73.49907921242946, "lon": -105.84530246832429, "alt_km": 1041.7177716547258, "timestamp": "2025-12-10T16:57:12.031617+00:00", "meta": {"OBJECT_NAME": "COSMOS 2251 DEB", "OBJECT_ID": "1993-036BQ", "EPOCH": "2025-12-10T11:30:49.033152", "MEAN_MOTION": 13.98941141, "ECCENTRICITY": 0.0209315, "INCLINATION": 73.8095, "RA_OF_ASC_NODE": 153.2914, "ARG_OF_PERICENTER": 278.8168, "MEAN_ANOMALY": 113.0941, "EPHEMERIS_TYPE": 0, "CLASSIFICATION_TYPE": "U", "NORAD_CAT_ID": 33823, "ELEMENT_SET_NO": 999, "REV_AT_EPOCH": 85578, "BSTAR": 0.0010377, "MEAN_MOTION_DOT": 1.781e-05, "MEAN_MOTION_DDOT": 0}, "tle": {"line1": "1 33823U 93036BQ  25344.47973418  .00001781  00000+0  10377-2 0  9997", "line2": "2 33823  73.8095 153.2914 0209315 278.8168 113.0941 13.98941141855781"}}, "geometry": {"type": "Point", "coordinates": [-105.84530246832429, 73.49907921242946]}}]}